[{"OBJECT_NAME":"STARLINK-5721","OBJECT_ID":"2023-020BA","EPOCH":"2026-03-09T04:20:15.296640","MEAN_MOTION":15.02544932,"ECCENTRICITY":0.00012828,"INCLINATION":43.0061,"RA_OF_ASC_NODE":354.3511,"ARG_OF_PERICENTER":274.3611,"MEAN_ANOMALY":85.7085,"EPHEMERIS_TYPE":0,"CLASSIFICATION_TYPE":"U","NORAD_CAT_ID":55617,"ELEMENT_SET_NO":999,"REV_AT_EPOCH":16899,"BSTAR":7.144668e-5,"MEAN_MOTION_DOT":7.62e-6,"MEAN_MOTION_DDOT":0},{"OBJECT_NAME":"CZ-6A DEB","OBJECT_ID":"2022-151YG","EPOCH":"2026-03-09T16:37:27.747264","MEAN_MOTION":14.90305171,"ECCENTRICITY":0.005448,"INCLINATION":98.6541,"RA_OF_ASC_NODE":144.0499,"ARG_OF_PERICENTER":194.4626,"MEAN_ANOMALY":165.5033,"EPHEMERIS_TYPE":0,"CLASSIFICATION_TYPE":"U","NORAD_CAT_ID":55534,"ELEMENT_SET_NO":999,"REV_AT_EPOCH":17121,"BSTAR":0.0042122496,"MEAN_MOTION_DOT":0.00042257,"MEAN_MOTION_DDOT":0}]
